start=new Date('2023-05-22T00:00:00.000Z').valueOf();
sats=[{"SITE":"AFETR","RA_OF_ASC_NODE":"183.3353","ECCENTRICITY":"0.00015390","INCLINATION":"53.0534","PERIAPSIS":"546.124","MEAN_ANOMALY":"270.4836","MEAN_ELEMENT_THEORY":"SGP4","TLE_LINE1":"1 47866U 21021G   23141.84710945 -.00001906  00000-0 -10905-3 0  9992","MEAN_MOTION":"15.06407731","REV_AT_EPOCH":"12218","REF_FRAME":"TEME","MEAN_MOTION_DOT":"-0.00001906","DECAY_DATE":null,"FILE":"3914061","NORAD_CAT_ID":"47866","GP_ID":"232282340","ARG_OF_PERICENTER":"89.6330","TIME_SYSTEM":"UTC","OBJECT_TYPE":"PAYLOAD","APOAPSIS":"548.256","MEAN_MOTION_DDOT":"0.0000000000000","PERIOD":"95.592","CLASSIFICATION_TYPE":"U","OBJECT_NAME":"STARLINK-2320","EPOCH":"2023-05-21T20:19:50.256480","RCS_SIZE":"LARGE","LAUNCH_DATE":"2021-03-14","OBJECT_ID":"2021-021G","SEMIMAJOR_AXIS":"6925.325","EPHEMERIS_TYPE":"0","CENTER_NAME":"EARTH","ELEMENT_SET_NO":"999","BSTAR":"-0.00010905000000","TLE_LINE2":"2 47866  53.0534 183.3353 0001539  89.6330 270.4836 15.06407731122184","COUNTRY_CODE":"US"},{"EPOCH":"2023-05-21T09:01:47.348544","RCS_SIZE":"LARGE","OBJECT_NAME":"STARLINK-2321","LAUNCH_DATE":"2021-03-14","PERIOD":"95.589","CLASSIFICATION_TYPE":"U","OBJECT_TYPE":"PAYLOAD","MEAN_MOTION_DDOT":"0.0000000000000","APOAPSIS":"547.697","COUNTRY_CODE":"US","TLE_LINE2":"2 47867  53.0523 175.4474 0000900  92.4164 267.6928 15.06445642122056","BSTAR":"0.00085796000000","EPHEMERIS_TYPE":"0","OBJECT_ID":"2021-021H","SEMIMAJOR_AXIS":"6925.209","ELEMENT_SET_NO":"999","CENTER_NAME":"EARTH","TLE_LINE1":"1 47867U 21021H   23141.37624246  .00012537  00000-0  85796-3 0  9999","MEAN_MOTION":"15.06445642","MEAN_ANOMALY":"267.6928","MEAN_ELEMENT_THEORY":"SGP4","REF_FRAME":"TEME","REV_AT_EPOCH":"12205","ECCENTRICITY":"0.00009000","SITE":"AFETR","RA_OF_ASC_NODE":"175.4474","INCLINATION":"53.0523","PERIAPSIS":"546.450","GP_ID":"232247120","NORAD_CAT_ID":"47867","ARG_OF_PERICENTER":"92.4164","TIME_SYSTEM":"UTC","MEAN_MOTION_DOT":"0.00012537","FILE":"3913738","DECAY_DATE":null},{"COUNTRY_CODE":"US","TLE_LINE2":"2 47868  53.0541 126.0735 0001121  87.4062 272.7055 15.06417680122785","BSTAR":"0.00023519000000","EPHEMERIS_TYPE":"0","OBJECT_ID":"2021-021J","SEMIMAJOR_AXIS":"6925.294","ELEMENT_SET_NO":"999","CENTER_NAME":"EARTH","EPOCH":"2023-05-21T05:41:24.404064","RCS_SIZE":"LARGE","OBJECT_NAME":"STARLINK-2323","LAUNCH_DATE":"2021-03-14","PERIOD":"95.591","CLASSIFICATION_TYPE":"U","OBJECT_TYPE":"PAYLOAD","MEAN_MOTION_DDOT":"0.0000000000000","APOAPSIS":"547.936","GP_ID":"232247870","NORAD_CAT_ID":"47868","TIME_SYSTEM":"UTC","ARG_OF_PERICENTER":"87.4062","MEAN_MOTION_DOT":"0.00003225","FILE":"3913738","DECAY_DATE":null,"TLE_LINE1":"1 47868U 21021J   23141.23708801  .00003225  00000-0  23519-3 0  9994","MEAN_MOTION":"15.06417680","MEAN_ANOMALY":"272.7055","MEAN_ELEMENT_THEORY":"SGP4","REF_FRAME":"TEME","REV_AT_EPOCH":"12278","ECCENTRICITY":"0.00011210","SITE":"AFETR","RA_OF_ASC_NODE":"126.0735","INCLINATION":"53.0541","PERIAPSIS":"546.383"},{"BSTAR":"-0.00009494500000","COUNTRY_CODE":"US","TLE_LINE2":"2 47869  53.0532 175.4644 0001205 126.3435 233.7665 15.06396651122208","OBJECT_ID":"2021-021K","SEMIMAJOR_AXIS":"6925.359","EPHEMERIS_TYPE":"0","CENTER_NAME":"EARTH","ELEMENT_SET_NO":"999","OBJECT_NAME":"STARLINK-2324","EPOCH":"2023-05-21T08:56:30.259680","RCS_SIZE":"LARGE","LAUNCH_DATE":"2021-03-14","OBJECT_TYPE":"PAYLOAD","APOAPSIS":"548.058","MEAN_MOTION_DDOT":"0.0000000000000","PERIOD":"95.592","CLASSIFICATION_TYPE":"U","NORAD_CAT_ID":"47869","GP_ID":"232248122","TIME_SYSTEM":"UTC","ARG_OF_PERICENTER":"126.3435","MEAN_MOTION_DOT":"-0.00001695","DECAY_DATE":null,"FILE":"3913738","MEAN_ELEMENT_THEORY":"SGP4","MEAN_ANOMALY":"233.7665","TLE_LINE1":"1 47869U 21021K   23141.37257245 -.00001695  00000-0 -94945-4 0  9994","MEAN_MOTION":"15.06396651","REV_AT_EPOCH":"12220","REF_FRAME":"TEME","SITE":"AFETR","RA_OF_ASC_NODE":"175.4644","ECCENTRICITY":"0.00012050","INCLINATION":"53.0532","PERIAPSIS":"546.389"},{"COUNTRY_CODE":"US","TLE_LINE2":"2 47870  53.0524 198.2997 0001280  85.6404 274.4731 15.06418542121716","BSTAR":"0.00004845900000","EPHEMERIS_TYPE":"0","OBJECT_ID":"2021-021L","SEMIMAJOR_AXIS":"6925.292","ELEMENT_SET_NO":"999","CENTER_NAME":"EARTH","EPOCH":"2023-05-21T20:31:07.275648","RCS_SIZE":"LARGE","OBJECT_NAME":"STARLINK-2326","LAUNCH_DATE":"2021-03-14","PERIOD":"95.591","CLASSIFICATION_TYPE":"U","OBJECT_TYPE":"PAYLOAD","APOAPSIS":"548.043","MEAN_MOTION_DDOT":"0.0000000000000","GP_ID":"232282841","NORAD_CAT_ID":"47870","TIME_SYSTEM":"UTC","ARG_OF_PERICENTER":"85.6404","MEAN_MOTION_DOT":"0.00000441","FILE":"3914061","DECAY_DATE":null,"TLE_LINE1":"1 47870U 21021L   23141.85494532  .00000441  00000-0  48459-4 0  9996","MEAN_MOTION":"15.06418542","MEAN_ANOMALY":"274.4731","MEAN_ELEMENT_THEORY":"SGP4","REF_FRAME":"TEME","REV_AT_EPOCH":"12171","ECCENTRICITY":"0.00012800","SITE":"AFETR","RA_OF_ASC_NODE":"198.2997","INCLINATION":"53.0524","PERIAPSIS":"546.270"},{"MEAN_ANOMALY":"269.6072","MEAN_ELEMENT_THEORY":"SGP4","MEAN_MOTION":"15.06441820","TLE_LINE1":"1 47871U 21021M   23141.36886877  .00012613  00000-0  86316-3 0  9997","REV_AT_EPOCH":"12209","REF_FRAME":"TEME","RA_OF_ASC_NODE":"175.4857","SITE":"AFETR","ECCENTRICITY":"0.00012840","PERIAPSIS":"546.196","INCLINATION":"53.0526","NORAD_CAT_ID":"47871","GP_ID":"232247620","ARG_OF_PERICENTER":"90.5064","TIME_SYSTEM":"UTC","MEAN_MOTION_DOT":"0.00012613","DECAY_DATE":null,"FILE":"3913738","OBJECT_NAME":"STARLINK-2327","RCS_SIZE":"LARGE","EPOCH":"2023-05-21T08:51:10.261728","LAUNCH_DATE":"2021-03-14","APOAPSIS":"547.975","MEAN_MOTION_DDOT":"0.0000000000000","OBJECT_TYPE":"PAYLOAD","CLASSIFICATION_TYPE":"U","PERIOD":"95.589","BSTAR":"0.00086316000000","TLE_LINE2":"2 47871  53.0526 175.4857 0001284  90.5064 269.6072 15.06441820122093","COUNTRY_CODE":"US","SEMIMAJOR_AXIS":"6925.220","OBJECT_ID":"2021-021M","EPHEMERIS_TYPE":"0","CENTER_NAME":"EARTH","ELEMENT_SET_NO":"999"},{"RCS_SIZE":"LARGE","EPOCH":"2023-05-21T19:33:24.645312","OBJECT_NAME":"STARLINK-2329","LAUNCH_DATE":"2021-03-14","CLASSIFICATION_TYPE":"U","PERIOD":"95.592","APOAPSIS":"548.099","MEAN_MOTION_DDOT":"0.0000000000000","OBJECT_TYPE":"PAYLOAD","TLE_LINE2":"2 47873  53.0538 173.4843 0001299  79.8698 280.2438 15.06404499122153","COUNTRY_CODE":"US","BSTAR":"0.00013590000000","EPHEMERIS_TYPE":"0","SEMIMAJOR_AXIS":"6925.335","OBJECT_ID":"2021-021P","ELEMENT_SET_NO":"999","CENTER_NAME":"EARTH","MEAN_MOTION":"15.06404499","TLE_LINE1":"1 47873U 21021P   23141.81486858  .00001744  00000-0  13590-3 0  9991","MEAN_ELEMENT_THEORY":"SGP4","MEAN_ANOMALY":"280.2438","REF_FRAME":"TEME","REV_AT_EPOCH":"12215","ECCENTRICITY":"0.00012990","RA_OF_ASC_NODE":"173.4843","SITE":"AFETR","PERIAPSIS":"546.300","INCLINATION":"53.0538","GP_ID":"232281840","NORAD_CAT_ID":"47873","ARG_OF_PERICENTER":"79.8698","TIME_SYSTEM":"UTC","MEAN_MOTION_DOT":"0.00001744","FILE":"3914061","DECAY_DATE":null},{"TIME_SYSTEM":"UTC","ARG_OF_PERICENTER":"95.8636","NORAD_CAT_ID":"47874","GP_ID":"232282090","DECAY_DATE":null,"FILE":"3914061","MEAN_MOTION_DOT":"0.00001797","REV_AT_EPOCH":"12277","REF_FRAME":"TEME","MEAN_ELEMENT_THEORY":"SGP4","MEAN_ANOMALY":"264.2523","MEAN_MOTION":"15.06383802","TLE_LINE1":"1 47874U 21021Q   23141.69186196  .00001797  00000-0  13957-3 0  9995","PERIAPSIS":"546.226","INCLINATION":"53.0549","RA_OF_ASC_NODE":"129.0393","SITE":"AFETR","ECCENTRICITY":"0.00014980","BSTAR":"0.00013957000000","COUNTRY_CODE":"US","TLE_LINE2":"2 47874  53.0549 129.0393 0001498  95.8636 264.2523 15.06383802122773","CENTER_NAME":"EARTH","ELEMENT_SET_NO":"999","SEMIMAJOR_AXIS":"6925.398","OBJECT_ID":"2021-021Q","EPHEMERIS_TYPE":"0","LAUNCH_DATE":"2021-03-14","OBJECT_NAME":"STARLINK-2330","RCS_SIZE":"LARGE","EPOCH":"2023-05-21T16:36:16.873344","MEAN_MOTION_DDOT":"0.0000000000000","APOAPSIS":"548.301","OBJECT_TYPE":"PAYLOAD","CLASSIFICATION_TYPE":"U","PERIOD":"95.593"},{"ARG_OF_PERICENTER":"99.2119","TIME_SYSTEM":"UTC","GP_ID":"232282341","NORAD_CAT_ID":"47875","FILE":"3914061","DECAY_DATE":null,"MEAN_MOTION_DOT":"-0.00006447","REF_FRAME":"TEME","REV_AT_EPOCH":"12207","TLE_LINE1":"1 47875U 21021R   23141.80656268 -.00006447  00000-0 -41425-3 0  9991","MEAN_MOTION":"15.06404711","MEAN_ELEMENT_THEORY":"SGP4","MEAN_ANOMALY":"260.9003","INCLINATION":"53.0538","PERIAPSIS":"546.386","ECCENTRICITY":"0.00011740","SITE":"AFETR","RA_OF_ASC_NODE":"183.5173","COUNTRY_CODE":"US","TLE_LINE2":"2 47875  53.0538 183.5173 0001174  99.2119 260.9003 15.06404711122070","BSTAR":"-0.00041425000000","ELEMENT_SET_NO":"999","CENTER_NAME":"EARTH","EPHEMERIS_TYPE":"0","OBJECT_ID":"2021-021R","SEMIMAJOR_AXIS":"6925.334","LAUNCH_DATE":"2021-03-14","EPOCH":"2023-05-21T19:21:27.015552","RCS_SIZE":"LARGE","OBJECT_NAME":"STARLINK-2331","PERIOD":"95.592","CLASSIFICATION_TYPE":"U","OBJECT_TYPE":"PAYLOAD","APOAPSIS":"548.012","MEAN_MOTION_DDOT":"0.0000000000000"},{"APOAPSIS":"548.076","MEAN_MOTION_DDOT":"0.0000000000000","OBJECT_TYPE":"PAYLOAD","CLASSIFICATION_TYPE":"U","PERIOD":"95.591","OBJECT_NAME":"STARLINK-2332","RCS_SIZE":"LARGE","EPOCH":"2023-05-21T09:32:18.710592","LAUNCH_DATE":"2021-03-14","SEMIMAJOR_AXIS":"6925.278","OBJECT_ID":"2021-021S","EPHEMERIS_TYPE":"0","CENTER_NAME":"EARTH","ELEMENT_SET_NO":"999","BSTAR":"0.00039938000000","TLE_LINE2":"2 47876  53.0538 185.3562 0001347  89.6606 270.4538 15.06423081121966","COUNTRY_CODE":"US","RA_OF_ASC_NODE":"185.3562","SITE":"AFETR","ECCENTRICITY":"0.00013470","PERIAPSIS":"546.210","INCLINATION":"53.0538","MEAN_ELEMENT_THEORY":"SGP4","MEAN_ANOMALY":"270.4538","MEAN_MOTION":"15.06423081","TLE_LINE1":"1 47876U 21021S   23141.39743878  .00005676  00000-0  39938-3 0  9997","REV_AT_EPOCH":"12196","REF_FRAME":"TEME","MEAN_MOTION_DOT":"0.00005676","DECAY_DATE":null,"FILE":"3913738","NORAD_CAT_ID":"47876","GP_ID":"232247121","TIME_SYSTEM":"UTC","ARG_OF_PERICENTER":"89.6606"}];
